{"type": "FeatureCollection", "features": [ {"type": "Feature", "properties": {"norad_id": 33867, "name": "IRIDIUM 33 DEB", "group": "iridium-33-debris", "lat": -31.82584450065147, "lon": 173.7954981542037, "alt_km": 391.3247492031405, "timestamp": "2025-12-09T23:33:24.238901+00:00", "meta": {"OBJECT_NAME": "IRIDIUM 33 DEB", "OBJECT_ID": "1997-051AL", "EPOCH": "2025-12-09T11:53:31.735680", "MEAN_MOTION": 15.61827995, "ECCENTRICITY": 0.00131638, "INCLINATION": 86.3636, "RA_OF_ASC_NODE": 351.7835, "ARG_OF_PERICENTER": 91.8218, "MEAN_ANOMALY": 268.4555, "EPHEMERIS_TYPE": 0, "CLASSIFICATION_TYPE": "U", "NORAD_CAT_ID": 33867, "ELEMENT_SET_NO": 999, "REV_AT_EPOCH": 89460, "BSTAR": 0.0081006888, "MEAN_MOTION_DOT": 0.00770772, "MEAN_MOTION_DDOT": 0}, "tle": {"line1": "1 33867U 97051AL  25343.49550620  .00770772  00000+0  81007-2 0  9994", "line2": "2 33867  86.3636 351.7835 0013163  91.8218 268.4555 15.61827995894601"}}, "geometry": {"type": "Point", "coordinates": [173.7954981542037, -31.82584450065147]}}, {"type": "Feature", "properties": {"norad_id": 33870, "name": "IRIDIUM 33 DEB", "group": "iridium-33-debris", "lat": 18.67136075661124, "lon": 60.67062403678121, "alt_km": 754.3895398535624, "timestamp": "2025-12-09T23:33:24.238912+00:00", "meta": {"OBJECT_NAME": "IRIDIUM 33 DEB", "OBJECT_ID": "1997-051AP", "EPOCH": "2025-12-09T15:56:18.830976", "MEAN_MOTION": 14.45825924, "ECCENTRICITY": 0.0021132, "INCLINATION": 86.3746, "RA_OF_ASC_NODE": 59.579, "ARG_OF_PERICENTER": 188.1728, "MEAN_ANOMALY": 339.5682, "EPHEMERIS_TYPE": 0, "CLASSIFICATION_TYPE": "U", "NORAD_CAT_ID": 33870, "ELEMENT_SET_NO": 999, "REV_AT_EPOCH": 88092, "BSTAR": 0.0013243244, "MEAN_MOTION_DOT": 4.731e-05, "MEAN_MOTION_DDOT": 0}, "tle": {"line1": "1 33870U 97051AP  25343.66410684  .00004731  00000+0  13243-2 0  9994", "line2": "2 33870  86.3746  59.5790 0021132 188.1728 339.5682 14.45825924880923"}}, "geometry": {"type": "Point", "coordinates": [60.67062403678121, 18.67136075661124]}}, {"type": "Feature", "properties": {"norad_id": 33881, "name": "IRIDIUM 33 DEB", "group": "iridium-33-debris", "lat": 39.20207500597088, "lon": -75.01319359404891, "alt_km": 669.6535661085909, "timestamp": "2025-12-09T23:33:24.238938+00:00", "meta": {"OBJECT_NAME": "IRIDIUM 33 DEB", "OBJECT_ID": "1997-051BA", "EPOCH": "2025-12-09T10:01:33.652704", "MEAN_MOTION": 14.56473135, "ECCENTRICITY": 0.00614296, "INCLINATION": 86.3869, "RA_OF_ASC_NODE": 108.1859, "ARG_OF_PERICENTER": 185.4197, "MEAN_ANOMALY": 241.4979, "EPHEMERIS_TYPE": 0, "CLASSIFICATION_TYPE": "U", "NORAD_CAT_ID": 33881, "ELEMENT_SET_NO": 999, "REV_AT_EPOCH": 87452, "BSTAR": 0.0028428363, "MEAN_MOTION_DOT": 0.00012995, "MEAN_MOTION_DDOT": 0}, "tle": {"line1": "1 33881U 97051BA  25343.41775061  .00012995  00000+0  28428-2 0  9994", "line2": "2 33881  86.3869 108.1859 0061429 185.4197 241.4979 14.56473135874525"}}, "geometry": {"type": "Point", "coordinates": [-75.01319359404891, 39.20207500597088]}}, {"type": "Feature", "properties": {"norad_id": 33884, "name": "IRIDIUM 33 DEB", "group": "iridium-33-debris", "lat": -60.765801921588086, "lon": -162.4223418725399, "alt_km": 645.4149374274202, "timestamp": "2025-12-09T23:33:24.238953+00:00", "meta": {"OBJECT_NAME": "IRIDIUM 33 DEB", "OBJECT_ID": "1997-051BD", "EPOCH": "2025-12-09T13:25:33.041280", "MEAN_MOTION": 14.77329371, "ECCENTRICITY": 0.00100119, "INCLINATION": 86.3692, "RA_OF_ASC_NODE": 11.2536, "ARG_OF_PERICENTER": 335.9245, "MEAN_ANOMALY": 181.5662, "EPHEMERIS_TYPE": 0, "CLASSIFICATION_TYPE": "U", "NORAD_CAT_ID": 33884, "ELEMENT_SET_NO": 999, "REV_AT_EPOCH": 88800, "BSTAR": 0.0018734779, "MEAN_MOTION_DOT": 0.00013349, "MEAN_MOTION_DDOT": 0}, "tle": {"line1": "1 33884U 97051BD  25343.55941020  .00013349  00000+0  18735-2 0  9996", "line2": "2 33884  86.3692  11.2536 0010011 335.9245 181.5662 14.77329371888001"}}, "geometry": {"type": "Point", "coordinates": [-162.4223418725399, -60.765801921588086]}}, {"type": "Feature", "properties": {"norad_id": 33886, "name": "IRIDIUM 33 DEB", "group": "iridium-33-debris", "lat": -36.52812467458668, "lon": -108.9249860072653, "alt_km": 770.9916125853151, "timestamp": "2025-12-09T23:33:24.238966+00:00", "meta": {"OBJECT_NAME": "IRIDIUM 33 DEB", "OBJECT_ID": "1997-051BF", "EPOCH": "2025-12-09T12:34:01.371936", "MEAN_MOTION": 14.36046616, "ECCENTRICITY": 0.00121349, "INCLINATION": 86.3831, "RA_OF_ASC_NODE": 68.5823, "ARG_OF_PERICENTER": 254.1199, "MEAN_ANOMALY": 116.7155, "EPHEMERIS_TYPE": 0, "CLASSIFICATION_TYPE": "U", "NORAD_CAT_ID": 33886, "ELEMENT_SET_NO": 999, "REV_AT_EPOCH": 88006, "BSTAR": 0.00037320213, "MEAN_MOTION_DOT": 1.105e-05, "MEAN_MOTION_DDOT": 0}, "tle": {"line1": "1 33886U 97051BF  25343.52362699  .00001105  00000+0  37320-3 0  9993", "line2": "2 33886  86.3831  68.5823 0012134 254.1199 116.7155 14.36046616880068"}}, "geometry": {"type": "Point", "coordinates": [-108.9249860072653, -36.52812467458668]}}, {"type": "Feature", "properties": {"norad_id": 33887, "name": "IRIDIUM 33 DEB", "group": "iridium-33-debris", "lat": 38.618593019262455, "lon": -178.3779871347961, "alt_km": 765.3464158984334, "timestamp": "2025-12-09T23:33:24.238978+00:00", "meta": {"OBJECT_NAME": "IRIDIUM 33 DEB", "OBJECT_ID": "1997-051BG", "EPOCH": "2025-12-09T07:58:22.365120", "MEAN_MOTION": 14.37216828, "ECCENTRICITY": 0.0004194, "INCLINATION": 86.3047, "RA_OF_ASC_NODE": 4.8609, "ARG_OF_PERICENTER": 242.0671, "MEAN_ANOMALY": 141.6982, "EPHEMERIS_TYPE": 0, "CLASSIFICATION_TYPE": "U", "NORAD_CAT_ID": 33887, "ELEMENT_SET_NO": 999, "REV_AT_EPOCH": 88116, "BSTAR": 0.00025793, "MEAN_MOTION_DOT": 7.87e-06, "MEAN_MOTION_DDOT": 0}, "tle": {"line1": "1 33887U 97051BG  25343.33220330  .00000787  00000+0  25793-3 0  9994", "line2": "2 33887  86.3047   4.8609 0004194 242.0671 141.6982 14.37216828881163"}}, "geometry": {"type": "Point", "coordinates": [-178.3779871347961, 38.618593019262455]}}, {"type": "Feature", "properties": {"norad_id": 33953, "name": "IRIDIUM 33 DEB", "group": "iridium-33-debris", "lat": 2.2212957005722367, "lon": -125.16422190360566, "alt_km": 706.0160201696381, "timestamp": "2025-12-09T23:33:24.238989+00:00", "meta": {"OBJECT_NAME": "IRIDIUM 33 DEB", "OBJECT_ID": "1997-051BN", "EPOCH": "2025-12-09T11:16:25.701888", "MEAN_MOTION": 14.55272572, "ECCENTRICITY": 0.00184804, "INCLINATION": 86.384, "RA_OF_ASC_NODE": 55.1984, "ARG_OF_PERICENTER": 112.7861, "MEAN_ANOMALY": 265.1429, "EPHEMERIS_TYPE": 0, "CLASSIFICATION_TYPE": "U", "NORAD_CAT_ID": 33953, "ELEMENT_SET_NO": 999, "REV_AT_EPOCH": 88256, "BSTAR": 0.0018147689, "MEAN_MOTION_DOT": 7.899e-05, "MEAN_MOTION_DDOT": 0}, "tle": {"line1": "1 33953U 97051BN  25343.46974192  .00007899  00000+0  18148-2 0  9990", "line2": "2 33953  86.3840  55.1984 0018480 112.7861 265.1429 14.55272572882561"}}, "geometry": {"type": "Point", "coordinates": [-125.16422190360566, 2.2212957005722367]}}, {"type": "Feature", "properties": {"norad_id": 33960, "name": "IRIDIUM 33 DEB", "group": "iridium-33-debris", "lat": 46.274219314016975, "lon": -65.25705504055182, "alt_km": 605.0026202615127, "timestamp": "2025-12-09T23:33:24.239000+00:00", "meta": {"OBJECT_NAME": "IRIDIUM 33 DEB", "OBJECT_ID": "1997-051BV", "EPOCH": "2025-12-09T14:26:17.488320", "MEAN_MOTION": 14.84917848, "ECCENTRICITY": 0.00073091, "INCLINATION": 86.2534, "RA_OF_ASC_NODE": 290.9936, "ARG_OF_PERICENTER": 67.1907, "MEAN_ANOMALY": 109.5984, "EPHEMERIS_TYPE": 0, "CLASSIFICATION_TYPE": "U", "NORAD_CAT_ID": 33960, "ELEMENT_SET_NO": 999, "REV_AT_EPOCH": 88820, "BSTAR": 0.0042871377, "MEAN_MOTION_DOT": 0.00036674, "MEAN_MOTION_DDOT": 0}, "tle": {"line1": "1 33960U 97051BV  25343.60159130  .00036674  00000+0  42871-2 0  9994", "line2": "2 33960  86.2534 290.9936 0007309  67.1907 109.5984 14.84917848888204"}}, "geometry": {"type": "Point", "coordinates": [-65.25705504055182, 46.274219314016975]}}, {"type": "Feature", "properties": {"norad_id": 33966, "name": "IRIDIUM 33 DEB", "group": "iridium-33-debris", "lat": 0.09028524219136122, "lon": 47.2166100350803, "alt_km": 734.8652132816433, "timestamp": "2025-12-09T23:33:24.239012+00:00", "meta": {"OBJECT_NAME": "IRIDIUM 33 DEB", "OBJECT_ID": "1997-051CB", "EPOCH": "2025-12-09T14:14:54.064320", "MEAN_MOTION": 14.49574792, "ECCENTRICITY": 0.00070419, "INCLINATION": 86.3923, "RA_OF_ASC_NODE": 47.3773, "ARG_OF_PERICENTER": 198.8596, "MEAN_ANOMALY": 298.6433, "EPHEMERIS_TYPE": 0, "CLASSIFICATION_TYPE": "U", "NORAD_CAT_ID": 33966, "ELEMENT_SET_NO": 999, "REV_AT_EPOCH": 88396, "BSTAR": 0.00091736668, "MEAN_MOTION_DOT": 3.54e-05, "MEAN_MOTION_DDOT": 0}, "tle": {"line1": "1 33966U 97051CB  25343.59368130  .00003540  00000+0  91737-3 0  9992", "line2": "2 33966  86.3923  47.3773 0007041 198.8596 298.6433 14.49574792883960"}}, "geometry": {"type": "Point", "coordinates": [47.2166100350803, 0.09028524219136122]}}, {"type": "Feature", "properties": {"norad_id": 34071, "name": "IRIDIUM 33 DEB", "group": "iridium-33-debris", "lat": 67.45241684617235, "lon": 27.881865995400272, "alt_km": 716.2046515471111, "timestamp": "2025-12-09T23:33:24.239024+00:00", "meta": {"OBJECT_NAME": "IRIDIUM 33 DEB", "OBJECT_ID": "1997-051CE", "EPOCH": "2025-12-09T11:38:50.524800", "MEAN_MOTION": 14.49443549, "ECCENTRICITY": 0.00098073, "INCLINATION": 86.3456, "RA_OF_ASC_NODE": 19.2427, "ARG_OF_PERICENTER": 116.2581, "MEAN_ANOMALY": 243.9632, "EPHEMERIS_TYPE": 0, "CLASSIFICATION_TYPE": "U", "NORAD_CAT_ID": 34071, "ELEMENT_SET_NO": 999, "REV_AT_EPOCH": 88287, "BSTAR": 0.00098998317, "MEAN_MOTION_DOT": 3.809e-05, "MEAN_MOTION_DDOT": 0}, "tle": {"line1": "1 34071U 97051CE  25343.48530700  .00003809  00000+0  98998-3 0  9996", "line2": "2 34071  86.3456  19.2427 0009807 116.2581 243.9632 14.49443549882871"}}, "geometry": {"type": "Point", "coordinates": [27.881865995400272, 67.45241684617235]}}]}